NORAD_CAT_ID,OBJECT_NAME,OBJECT_TYPE,EPOCH,MEAN_MOTION,ECCENTRICITY,INCLINATION,RA_OF_ASC_NODE,ARG_OF_PERICENTER,MEAN_ANOMALY,BSTAR,MEAN_MOTION_DOT,MEAN_MOTION_DDOT,TLE_LINE0,TLE_LINE1,TLE_LINE2,SEMIMAJOR_AXIS,PERIOD,APOGEE,PERIGEE,DECAYED
52489.0,STARLINK-3923,PAYLOAD,2024-08-12 02:53:48,15.08852832,0.0001484,53.2166,118.4598,110.8757,249.2394,0.00066005,0.00010236,0.0,0 STARLINK-3923,1 52489U 22049AQ  24225.12069793  .00010236  00000-0  66005-3 0  9999,2 52489  53.2166 118.4598 0001484 110.8757 249.2394 15.08852832125514,6917.841,95.437,540.733,538.68,0.0
52489.0,STARLINK-3923,PAYLOAD,2024-08-12 17:12:16,15.08852825,0.0001904,53.2164,115.7874,103.5179,256.6026,0.00048242,7.401e-05,0.0,0 STARLINK-3923,1 52489U 22049AQ  24225.71685890  .00007401  00000-0  48242-3 0  9999,2 52489  53.2164 115.7874 0001904 103.5179 256.6026 15.08852825125766,6917.841,95.437,541.023,538.389,0.0
52489.0,STARLINK-3923,PAYLOAD,2024-08-12 21:58:25,15.08874003,0.000194,53.217,114.8963,128.9102,231.2063,0.0011594,0.00018229,0.0,0 STARLINK-3923,1 52489U 22049AQ  24225.91557285  .00018229  00000-0  11594-2 0  9996,2 52489  53.2170 114.8963 0001940 128.9102 231.2063 15.08874003125637,6917.776,95.435,540.984,538.299,0.0
52489.0,STARLINK-3923,PAYLOAD,2024-08-13 02:44:34,15.08908867,0.000114,53.2161,114.0039,91.8281,268.2841,0.0031913,0.00050965,0.0,0 STARLINK-3923,1 52489U 22049AQ  24226.11428786  .00050965  00000-0  31913-2 0  9992,2 52489  53.2161 114.0039 0001140  91.8281 268.2841 15.08908867125822,6917.67,95.433,540.324,538.746,0.0
52489.0,STARLINK-3923,PAYLOAD,2024-08-13 09:06:07,15.08851536,0.0001575,53.2165,112.8138,84.1864,275.9308,-0.00023648,-4.051e-05,0.0,0 STARLINK-3923,1 52489U 22049AQ  24226.37925170 -.00004051  00000-0 -23648-3 0  9993,2 52489  53.2165 112.8138 0001575  84.1864 275.9308 15.08851536125863,6917.845,95.437,540.8,538.621,0.0
52489.0,STARLINK-3923,PAYLOAD,2024-08-13 17:03:04,15.08810441,0.0001616,53.2176,111.3271,91.0941,269.0236,-0.00011956,-2.189e-05,0.0,0 STARLINK-3923,1 52489U 22049AQ  24226.71046607 -.00002189  00000-0 -11956-3 0  9999,2 52489  53.2176 111.3271 0001616  91.0941 269.0236 15.08810441125916,6917.971,95.439,540.954,538.718,0.0
52489.0,STARLINK-3923,PAYLOAD,2024-08-13 23:24:37,15.08790252,0.000143,53.2175,110.1377,81.0759,279.0395,0.0026157,0.0004153,0.0,0 STARLINK-3923,1 52489U 22049AQ  24226.97543733  .00041530  00000-0  26157-2 0  9998,2 52489  53.2175 110.1377 0001430  81.0759 279.0395 15.08790252125799,6918.032,95.441,540.887,538.908,0.0
52489.0,STARLINK-3923,PAYLOAD,2024-08-14 08:56:57,15.08819308,0.0001671,53.2161,108.3545,88.6683,271.45,0.002511,0.00039878,0.0,0 STARLINK-3923,1 52489U 22049AQ  24227.37288635  .00039878  00000-0  25110-2 0  9990,2 52489  53.2161 108.3545 0001671  88.6683 271.4500 15.08819308125851,6917.944,95.439,540.965,538.653,0.0
52489.0,STARLINK-3923,PAYLOAD,2024-08-14 20:04:39,15.08839808,0.000166,53.2158,106.2724,89.5277,270.5905,0.0016636,0.00026287,0.0,0 STARLINK-3923,1 52489U 22049AQ  24227.83656958  .00026287  00000-0  16636-2 0  9991,2 52489  53.2158 106.2724 0001660  89.5277 270.5905 15.08839808126082,6917.881,95.438,540.894,538.598,0.0
52489.0,STARLINK-3923,PAYLOAD,2024-08-14 23:15:25,15.08847047,0.0001636,53.2158,105.6776,90.0251,270.0928,0.0016611,0.00026252,0.0,0 STARLINK-3923,1 52489U 22049AQ  24227.96904900  .00026252  00000-0  16611-2 0  9993,2 52489  53.2158 105.6776 0001636  90.0251 270.0928 15.08847047125942,6917.859,95.437,540.856,538.592,0.0
52489.0,STARLINK-3923,PAYLOAD,2024-08-15 08:47:44,15.08856605,0.000157,53.2157,103.8943,94.9738,265.1433,0.0011896,0.00018704,0.0,0 STARLINK-3923,1 52489U 22049AQ  24228.36648655  .00018704  00000-0  11896-2 0  9993,2 52489  53.2157 103.8943 0001570  94.9738 265.1433 15.08856605126001,6917.83,95.437,540.781,538.609,0.0
52489.0,STARLINK-3923,PAYLOAD,2024-08-15 21:30:49,15.08865417,0.0001587,53.2153,101.5158,93.9876,266.1298,0.0011528,0.00018119,0.0,0 STARLINK-3923,1 52489U 22049AQ  24228.89640138  .00018119  00000-0  11528-2 0  9991,2 52489  53.2153 101.5158 0001587  93.9876 266.1298 15.08865417126247,6917.803,95.436,540.766,538.57,0.0
52489.0,STARLINK-3923,PAYLOAD,2024-08-15 23:06:12,15.08868614,0.0001553,53.2153,101.2183,92.8751,267.2419,0.0012167,0.00019144,0.0,0 STARLINK-3923,1 52489U 22049AQ  24228.96263984  .00019144  00000-0  12167-2 0  9998,2 52489  53.2153 101.2183 0001553  92.8751 267.2419 15.08868614126097,6917.793,95.436,540.732,538.584,0.0
52489.0,STARLINK-3923,PAYLOAD,2024-08-16 21:21:35,15.08863551,0.0001538,53.2148,97.0543,134.1883,225.9235,0.0011391,0.00017899,0.0,0 STARLINK-3923,1 52489U 22049AQ  24229.88999074  .00017899  00000-0  11391-2 0  9999,2 52489  53.2148  97.0543 0001538 134.1883 225.9235 15.08863551126397,6917.808,95.436,540.737,538.609,0.0
52489.0,STARLINK-3923,PAYLOAD,2024-08-17 00:32:21,15.08859029,0.0001275,53.2146,96.4583,111.3632,248.7496,0.00047127,7.224e-05,0.0,0 STARLINK-3923,1 52489U 22049AQ  24230.02247040  .00007224  00000-0  47127-3 0  9994,2 52489  53.2146  96.4583 0001275 111.3632 248.7496 15.08859029126419,6917.822,95.436,540.569,538.805,0.0
52489.0,STARLINK-3923,PAYLOAD,2024-08-18 00:23:08,15.08841073,0.0001383,53.2166,91.9871,134.6674,225.4431,0.00068847,0.00010686,0.0,0 STARLINK-3923,1 52489U 22049AQ  24231.01607259  .00010686  00000-0  68847-3 0  9994,2 52489  53.2166  91.9871 0001383 134.6674 225.4431 15.08841073126562,6917.877,95.437,540.699,538.785,0.0
52489.0,STARLINK-3923,PAYLOAD,2024-08-18 21:03:09,15.08853162,0.0001242,53.2168,88.1233,107.0967,253.0161,0.00052171,8.028e-05,0.0,0 STARLINK-3923,1 52489U 22049AQ  24231.87719044  .00008028  00000-0  52171-3 0  9994,2 52489  53.2168  88.1233 0001242 107.0967 253.0161 15.08853162126533,6917.84,95.437,540.564,538.846,0.0
52489.0,STARLINK-3923,PAYLOAD,2024-08-19 00:13:55,15.08853903,0.0001282,53.2164,87.5349,95.3133,264.8005,0.00050346,7.737e-05,0.0,0 STARLINK-3923,1 52489U 22049AQ  24232.00967054  .00007737  00000-0  50346-3 0  9994,2 52489  53.2164  87.5349 0001282  95.3133 264.8005 15.08853903126718,6917.838,95.437,540.59,538.816,0.0
52489.0,STARLINK-3923,PAYLOAD,2024-08-19 14:32:24,15.08837793,0.0001259,53.217,84.8611,89.1161,270.9976,9.9086e-05,1.289e-05,0.0,0 STARLINK-3923,1 52489U 22049AQ  24232.60583656  .00001289  00000-0  99086-4 0  9993,2 52489  53.2170  84.8611 0001259  89.1161 270.9976 15.08837793126649,6917.887,95.438,540.623,538.881,0.0
52489.0,STARLINK-3923,PAYLOAD,2024-08-19 20:53:56,15.08842992,0.0001373,53.2167,83.6644,114.0069,246.1067,0.00021564,3.146e-05,0.0,0 STARLINK-3923,1 52489U 22049AQ  24232.87079391  .00003146  00000-0  21564-3 0  9997,2 52489  53.2167  83.6644 0001373 114.0069 246.1067 15.08842992126845,6917.871,95.437,540.686,538.786,0.0
52489.0,STARLINK-3923,PAYLOAD,2024-08-20 00:04:43,15.08839383,0.0001398,53.2167,83.0767,93.3615,266.7537,0.00017694,2.529e-05,0.0,0 STARLINK-3923,1 52489U 22049AQ  24233.00327684  .00002529  00000-0  17694-3 0  9997,2 52489  53.2167  83.0767 0001398  93.3615 266.7537 15.08839383126703,6917.882,95.438,540.714,538.78,0.0
52489.0,STARLINK-3923,PAYLOAD,2024-08-20 19:09:20,15.08845581,0.0001415,53.2163,79.5082,92.1644,267.951,0.00042688,6.513e-05,0.0,0 STARLINK-3923,1 52489U 22049AQ  24233.79815693  .00006513  00000-0  42688-3 0  9993,2 52489  53.2163  79.5082 0001415  92.1644 267.9510 15.08845581126989,6917.863,95.437,540.707,538.749,0.0
52489.0,STARLINK-3923,PAYLOAD,2024-08-20 23:55:29,15.08851428,0.0001451,53.2163,78.6153,99.0204,261.0953,0.0004423,6.76e-05,0.0,0 STARLINK-3923,1 52489U 22049AQ  24233.99687417  .00006760  00000-0  44230-3 0  9995,2 52489  53.2163  78.6153 0001451  99.0204 261.0953 15.08851428126855,6917.845,95.437,540.714,538.707,0.0
52489.0,STARLINK-3923,PAYLOAD,2024-08-21 20:35:30,15.08846755,0.000136,53.2157,74.7505,93.8483,266.2665,0.00023678,3.483e-05,0.0,0 STARLINK-3923,1 52489U 22049AQ  24234.85799509  .00003483  00000-0  23678-3 0  9999,2 52489  53.2157  74.7505 0001360  93.8483 266.2665 15.08846755126984,6917.86,95.437,540.666,538.784,0.0
52489.0,STARLINK-3923,PAYLOAD,2024-08-21 22:10:53,15.088498,0.0001378,53.2162,74.4527,92.7633,267.3517,0.0003104,4.657e-05,0.0,0 STARLINK-3923,1 52489U 22049AQ  24234.92423435  .00004657  00000-0  31040-3 0  9995,2 52489  53.2162  74.4527 0001378  92.7633 267.3517 15.08849800127157,6917.85,95.437,540.669,538.762,0.0
